{"type": "FeatureCollection", "features": [ {"type": "Feature", "properties": {"norad_id": 66607, "name": "STARLINK-35993", "group": "last-30-days", "lat": 12.710272523827367, "lon": -135.58196444520712, "alt_km": 400.82188034371484, "timestamp": "2025-12-09T16:56:35.359799+00:00", "meta": {"OBJECT_NAME": "STARLINK-35993", "OBJECT_ID": "2025-270V", "EPOCH": "2025-12-09T12:00:02.000160", "MEAN_MOTION": 15.55895322, "ECCENTRICITY": 0.0001772, "INCLINATION": 42.9994, "RA_OF_ASC_NODE": 211.6242, "ARG_OF_PERICENTER": 254.6337, "MEAN_ANOMALY": 49.6862, "EPHEMERIS_TYPE": 0, "CLASSIFICATION_TYPE": "U", "NORAD_CAT_ID": 66607, "ELEMENT_SET_NO": 999, "REV_AT_EPOCH": 378, "BSTAR": -0.032114, "MEAN_MOTION_DOT": -0.02040663, "MEAN_MOTION_DDOT": 0}, "tle": {"line1": "1 66607U 25270V   25343.50002315 -.02040663  00000+0 -32114-1 0  9998", "line2": "2 66607  42.9994 211.6242 0001772 254.6337  49.6862 15.55895322  3787"}}, "geometry": {"type": "Point", "coordinates": [-135.58196444520712, 12.710272523827367]}}, {"type": "Feature", "properties": {"norad_id": 66608, "name": "STARLINK-36036", "group": "last-30-days", "lat": 15.228285985828512, "lon": -132.61328828957903, "alt_km": 400.5185139750729, "timestamp": "2025-12-09T16:56:35.359809+00:00", "meta": {"OBJECT_NAME": "STARLINK-36036", "OBJECT_ID": "2025-270W", "EPOCH": "2025-12-09T12:00:02.000160", "MEAN_MOTION": 15.55891452, "ECCENTRICITY": 0.0001618, "INCLINATION": 42.9998, "RA_OF_ASC_NODE": 211.6145, "ARG_OF_PERICENTER": 250.4945, "MEAN_ANOMALY": 57.6608, "EPHEMERIS_TYPE": 0, "CLASSIFICATION_TYPE": "U", "NORAD_CAT_ID": 66608, "ELEMENT_SET_NO": 999, "REV_AT_EPOCH": 372, "BSTAR": -0.031976, "MEAN_MOTION_DOT": -0.0203246, "MEAN_MOTION_DDOT": 0}, "tle": {"line1": "1 66608U 25270W   25343.50002315 -.02032460  00000+0 -31976-1 0  9990", "line2": "2 66608  42.9998 211.6145 0001618 250.4945  57.6608 15.55891452  3723"}}, "geometry": {"type": "Point", "coordinates": [-132.61328828957903, 15.228285985828512]}}, {"type": "Feature", "properties": {"norad_id": 66609, "name": "STARLINK-36034", "group": "last-30-days", "lat": 16.475664552538916, "lon": -131.0986243633128, "alt_km": 400.32159711845, "timestamp": "2025-12-09T16:56:35.359821+00:00", "meta": {"OBJECT_NAME": "STARLINK-36034", "OBJECT_ID": "2025-270X", "EPOCH": "2025-12-09T12:00:02.000160", "MEAN_MOTION": 15.55889986, "ECCENTRICITY": 0.0001702, "INCLINATION": 42.9993, "RA_OF_ASC_NODE": 211.6099, "ARG_OF_PERICENTER": 254.977, "MEAN_ANOMALY": 55.0985, "EPHEMERIS_TYPE": 0, "CLASSIFICATION_TYPE": "U", "NORAD_CAT_ID": 66609, "ELEMENT_SET_NO": 999, "REV_AT_EPOCH": 372, "BSTAR": -0.032022, "MEAN_MOTION_DOT": -0.02035004, "MEAN_MOTION_DDOT": 0}, "tle": {"line1": "1 66609U 25270X   25343.50002315 -.02035004  00000+0 -32022-1 0  9991", "line2": "2 66609  42.9993 211.6099 0001702 254.9770  55.0985 15.55889986  3725"}}, "geometry": {"type": "Point", "coordinates": [-131.0986243633128, 16.475664552538916]}}, {"type": "Feature", "properties": {"norad_id": 66610, "name": "STARLINK-35680", "group": "last-30-days", "lat": 17.7105540796221, "lon": -129.56696805950315, "alt_km": 400.10014817157116, "timestamp": "2025-12-09T16:56:35.359831+00:00", "meta": {"OBJECT_NAME": "STARLINK-35680", "OBJECT_ID": "2025-270Y", "EPOCH": "2025-12-09T12:00:02.000160", "MEAN_MOTION": 15.55895368, "ECCENTRICITY": 0.0001775, "INCLINATION": 42.9995, "RA_OF_ASC_NODE": 211.6049, "ARG_OF_PERICENTER": 259.3804, "MEAN_ANOMALY": 52.6083, "EPHEMERIS_TYPE": 0, "CLASSIFICATION_TYPE": "U", "NORAD_CAT_ID": 66610, "ELEMENT_SET_NO": 999, "REV_AT_EPOCH": 398, "BSTAR": -0.032109, "MEAN_MOTION_DOT": -0.02040389, "MEAN_MOTION_DDOT": 0}, "tle": {"line1": "1 66610U 25270Y   25343.50002315 -.02040389  00000+0 -32109-1 0  9991", "line2": "2 66610  42.9995 211.6049 0001775 259.3804  52.6083 15.55895368  3982"}}, "geometry": {"type": "Point", "coordinates": [-129.56696805950315, 17.7105540796221]}}, {"type": "Feature", "properties": {"norad_id": 66611, "name": "STARLINK-35583", "group": "last-30-days", "lat": 18.932412583396605, "lon": -128.01531442707596, "alt_km": 399.9785502924824, "timestamp": "2025-12-09T16:56:35.359841+00:00", "meta": {"OBJECT_NAME": "STARLINK-35583", "OBJECT_ID": "2025-270Z", "EPOCH": "2025-12-09T12:00:02.000160", "MEAN_MOTION": 15.55890214, "ECCENTRICITY": 0.0001752, "INCLINATION": 42.9997, "RA_OF_ASC_NODE": 211.5999, "ARG_OF_PERICENTER": 257.3378, "MEAN_ANOMALY": 56.5707, "EPHEMERIS_TYPE": 0, "CLASSIFICATION_TYPE": "U", "NORAD_CAT_ID": 66611, "ELEMENT_SET_NO": 999, "REV_AT_EPOCH": 398, "BSTAR": -0.032001, "MEAN_MOTION_DOT": -0.02033882, "MEAN_MOTION_DDOT": 0}, "tle": {"line1": "1 66611U 25270Z   25343.50002315 -.02033882  00000+0 -32001-1 0  9993", "line2": "2 66611  42.9997 211.5999 0001752 257.3378  56.5707 15.55890214  3988"}}, "geometry": {"type": "Point", "coordinates": [-128.01531442707596, 18.932412583396605]}}, {"type": "Feature", "properties": {"norad_id": 66612, "name": "STARLINK-36039", "group": "last-30-days", "lat": 20.141541731849983, "lon": -126.44056597830284, "alt_km": 399.7790587988284, "timestamp": "2025-12-09T16:56:35.359875+00:00", "meta": {"OBJECT_NAME": "STARLINK-36039", "OBJECT_ID": "2025-270AA", "EPOCH": "2025-12-09T12:00:02.000160", "MEAN_MOTION": 15.5588836, "ECCENTRICITY": 0.0001647, "INCLINATION": 42.9994, "RA_OF_ASC_NODE": 211.5942, "ARG_OF_PERICENTER": 257.0287, "MEAN_ANOMALY": 58.7991, "EPHEMERIS_TYPE": 0, "CLASSIFICATION_TYPE": "U", "NORAD_CAT_ID": 66612, "ELEMENT_SET_NO": 999, "REV_AT_EPOCH": 388, "BSTAR": -0.031963, "MEAN_MOTION_DOT": -0.02031524, "MEAN_MOTION_DDOT": 0}, "tle": {"line1": "1 66612U 25270AA  25343.50002315 -.02031524  00000+0 -31963-1 0  9991", "line2": "2 66612  42.9994 211.5942 0001647 257.0287  58.7991 15.55888360  3880"}}, "geometry": {"type": "Point", "coordinates": [-126.44056597830284, 20.141541731849983]}}, {"type": "Feature", "properties": {"norad_id": 66613, "name": "STARLINK-36037", "group": "last-30-days", "lat": 21.336758914688694, "lon": -124.83979365501678, "alt_km": 399.6077594221724, "timestamp": "2025-12-09T16:56:35.359887+00:00", "meta": {"OBJECT_NAME": "STARLINK-36037", "OBJECT_ID": "2025-270AB", "EPOCH": "2025-12-09T12:00:02.000160", "MEAN_MOTION": 15.55884694, "ECCENTRICITY": 0.0001717, "INCLINATION": 42.9995, "RA_OF_ASC_NODE": 211.5898, "ARG_OF_PERICENTER": 259.6664, "MEAN_ANOMALY": 58.0794, "EPHEMERIS_TYPE": 0, "CLASSIFICATION_TYPE": "U", "NORAD_CAT_ID": 66613, "ELEMENT_SET_NO": 999, "REV_AT_EPOCH": 388, "BSTAR": -0.03186, "MEAN_MOTION_DOT": -0.02025448, "MEAN_MOTION_DDOT": 0}, "tle": {"line1": "1 66613U 25270AB  25343.50002315 -.02025448  00000+0 -31860-1 0  9996", "line2": "2 66613  42.9995 211.5898 0001717 259.6664  58.0794 15.55884694  3887"}}, "geometry": {"type": "Point", "coordinates": [-124.83979365501678, 21.336758914688694]}}, {"type": "Feature", "properties": {"norad_id": 66614, "name": "STARLINK-36040", "group": "last-30-days", "lat": 23.67767105921096, "lon": -121.56125062070271, "alt_km": 399.3370813621459, "timestamp": "2025-12-09T16:56:35.359897+00:00", "meta": {"OBJECT_NAME": "STARLINK-36040", "OBJECT_ID": "2025-270AC", "EPOCH": "2025-12-09T12:00:02.000160", "MEAN_MOTION": 15.55894274, "ECCENTRICITY": 0.0001716, "INCLINATION": 42.9995, "RA_OF_ASC_NODE": 211.5802, "ARG_OF_PERICENTER": 256.5211, "MEAN_ANOMALY": 65.0532, "EPHEMERIS_TYPE": 0, "CLASSIFICATION_TYPE": "U", "NORAD_CAT_ID": 66614, "ELEMENT_SET_NO": 999, "REV_AT_EPOCH": 372, "BSTAR": -0.032071, "MEAN_MOTION_DOT": -0.02038099, "MEAN_MOTION_DDOT": 0}, "tle": {"line1": "1 66614U 25270AC  25343.50002315 -.02038099  00000+0 -32071-1 0  9998", "line2": "2 66614  42.9995 211.5802 0001716 256.5211  65.0532 15.55894274  3722"}}, "geometry": {"type": "Point", "coordinates": [-121.56125062070271, 23.67767105921096]}}, {"type": "Feature", "properties": {"norad_id": 66615, "name": "STARLINK-35988", "group": "last-30-days", "lat": 22.515288746751278, "lon": -123.21532308382858, "alt_km": 399.5633302787219, "timestamp": "2025-12-09T16:56:35.359907+00:00", "meta": {"OBJECT_NAME": "STARLINK-35988", "OBJECT_ID": "2025-270AD", "EPOCH": "2025-12-09T12:00:02.000160", "MEAN_MOTION": 15.5589117, "ECCENTRICITY": 0.0001791, "INCLINATION": 42.9996, "RA_OF_ASC_NODE": 211.5846, "ARG_OF_PERICENTER": 254.8364, "MEAN_ANOMALY": 64.8226, "EPHEMERIS_TYPE": 0, "CLASSIFICATION_TYPE": "U", "NORAD_CAT_ID": 66615, "ELEMENT_SET_NO": 999, "REV_AT_EPOCH": 372, "BSTAR": -0.031994, "MEAN_MOTION_DOT": -0.02033565, "MEAN_MOTION_DDOT": 0}, "tle": {"line1": "1 66615U 25270AD  25343.50002315 -.02033565  00000+0 -31994-1 0  9995", "line2": "2 66615  42.9996 211.5846 0001791 254.8364  64.8226 15.55891170  3724"}}, "geometry": {"type": "Point", "coordinates": [-123.21532308382858, 22.515288746751278]}}, {"type": "Feature", "properties": {"norad_id": 66616, "name": "STARLINK-35391", "group": "last-30-days", "lat": 24.82273328198374, "lon": -119.87737486084315, "alt_km": 399.13541244147837, "timestamp": "2025-12-09T16:56:35.359920+00:00", "meta": {"OBJECT_NAME": "STARLINK-35391", "OBJECT_ID": "2025-270AE", "EPOCH": "2025-12-09T12:00:02.000160", "MEAN_MOTION": 15.55894944, "ECCENTRICITY": 0.0001689, "INCLINATION": 42.9996, "RA_OF_ASC_NODE": 211.5753, "ARG_OF_PERICENTER": 258.3684, "MEAN_ANOMALY": 65.1226, "EPHEMERIS_TYPE": 0, "CLASSIFICATION_TYPE": "U", "NORAD_CAT_ID": 66616, "ELEMENT_SET_NO": 999, "REV_AT_EPOCH": 398, "BSTAR": -0.032068, "MEAN_MOTION_DOT": -0.0203797, "MEAN_MOTION_DDOT": 0}, "tle": {"line1": "1 66616U 25270AE  25343.50002315 -.02037970  00000+0 -32068-1 0  9993", "line2": "2 66616  42.9996 211.5753 0001689 258.3684  65.1226 15.55894944  3986"}}, "geometry": {"type": "Point", "coordinates": [-119.87737486084315, 24.82273328198374]}}]}